[{"OBJECT_NAME":"DTUSAT-2","OBJECT_ID":"2014-033W","EPOCH":"2026-03-09T22:10:18.114528","MEAN_MOTION":15.13540485,"ECCENTRICITY":0.00071331,"INCLINATION":98.0849,"RA_OF_ASC_NODE":60.4732,"ARG_OF_PERICENTER":201.7269,"MEAN_ANOMALY":158.3659,"EPHEMERIS_TYPE":0,"CLASSIFICATION_TYPE":"U","NORAD_CAT_ID":40030,"ELEMENT_SET_NO":999,"REV_AT_EPOCH":63766,"BSTAR":0.00060729373,"MEAN_MOTION_DOT":0.00010825,"MEAN_MOTION_DDOT":0},{"OBJECT_NAME":"STARLINK-2081","OBJECT_ID":"2021-005T","EPOCH":"2026-03-10T00:00:02.999808","MEAN_MOTION":15.11382096,"ECCENTRICITY":0.00011542,"INCLINATION":53.0731,"RA_OF_ASC_NODE":60.1713,"ARG_OF_PERICENTER":72.8925,"MEAN_ANOMALY":345.3499,"EPHEMERIS_TYPE":0,"CLASSIFICATION_TYPE":"U","NORAD_CAT_ID":47366,"ELEMENT_SET_NO":999,"REV_AT_EPOCH":574,"BSTAR":0.0047781147,"MEAN_MOTION_DOT":0.0008222,"MEAN_MOTION_DDOT":0}]
